[{"OBJECT_NAME":"STARLINK-35379","OBJECT_ID":"2025-235AC","EPOCH":"2026-03-09T17:20:58.636896","MEAN_MOTION":15.30199465,"ECCENTRICITY":9.47e-5,"INCLINATION":53.1567,"RA_OF_ASC_NODE":245.3149,"ARG_OF_PERICENTER":82.2001,"MEAN_ANOMALY":277.9107,"EPHEMERIS_TYPE":0,"CLASSIFICATION_TYPE":"U","NORAD_CAT_ID":66084,"ELEMENT_SET_NO":999,"REV_AT_EPOCH":2292,"BSTAR":0.0008792672,"MEAN_MOTION_DOT":0.00025772,"MEAN_MOTION_DDOT":0},{"OBJECT_NAME":"ELECTRON KICK STAGE R\/B","OBJECT_ID":"2024-248B","EPOCH":"2026-03-09T20:49:52.700448","MEAN_MOTION":15.26602112,"ECCENTRICITY":0.00382118,"INCLINATION":97.6105,"RA_OF_ASC_NODE":34.9036,"ARG_OF_PERICENTER":284.4829,"MEAN_ANOMALY":75.2171,"EPHEMERIS_TYPE":0,"CLASSIFICATION_TYPE":"U","NORAD_CAT_ID":62407,"ELEMENT_SET_NO":999,"REV_AT_EPOCH":6727,"BSTAR":0.0006831254,"MEAN_MOTION_DOT":0.00018217,"MEAN_MOTION_DDOT":0}]
